ONEWEB-0716             
1 55177U 23004AP  25175.76546819  .00000000  00000+0 -33427-4 0  9993
2 55177  87.9063  77.0406 0001913  85.2673 274.8677 13.17647641120519
ONEWEB-0717             
1 55178U 23004AQ  25175.74859334  .00000044  00000+0  80746-4 0  9994
2 55178  87.9065  77.0028 0001813  52.2460 307.8835 13.17650684120568
ONEWEB-0719             
1 55179U 23004AR  25175.75872015  .00000542  00000+0  13622-2 0  9997
2 55179  87.9050  76.9847 0001918  81.9832 278.1517 13.17654098120513
ONEWEB-0530             
1 55796U 23029A   25175.89717521  .00000035  00000+0  52980-4 0  9993
2 55796  87.9265 345.6461 0001362  86.3815 273.7474 13.20770194113983
ONEWEB-0534             
1 55797U 23029B   25175.88455527 -.00000165  00000+0 -43819-3 0  9994
2 55797  87.9241 345.6552 0002156  96.4416 263.6963 13.20770071113985
ONEWEB-0556             
1 55798U 23029C   25175.51209301  .00000058  00000+0  11024-3 0  9994
2 55798  87.9265 345.7222 0001314 116.9523 243.1745 13.20770763113933
ONEWEB-0562             
1 55799U 23029D   25175.87823399  .00000100  00000+0  21376-3 0  9992
2 55799  87.9266 345.6423 0000918  92.0425 268.0813 13.20773228113987
ONEWEB-0563             
1 55800U 23029E   25175.87193013  .00000113  00000+0  24644-3 0  9993
2 55800  87.9266 345.6584 0001956 101.8204 258.3149 13.20772647113972
